[{"OBJECT_NAME":"JILIN-1 06","OBJECT_ID":"2017-074C","EPOCH":"2026-03-09T22:46:57.173376","MEAN_MOTION":15.32444387,"ECCENTRICITY":0.00061285,"INCLINATION":97.4715,"RA_OF_ASC_NODE":171.0354,"ARG_OF_PERICENTER":223.0031,"MEAN_ANOMALY":137.0732,"EPHEMERIS_TYPE":0,"CLASSIFICATION_TYPE":"U","NORAD_CAT_ID":43024,"ELEMENT_SET_NO":999,"REV_AT_EPOCH":45863,"BSTAR":0.00028431628,"MEAN_MOTION_DOT":8.833e-5,"MEAN_MOTION_DDOT":0},{"OBJECT_NAME":"STARLINK-33902","OBJECT_ID":"2025-225L","EPOCH":"2026-03-09T13:18:38.234016","MEAN_MOTION":15.30174696,"ECCENTRICITY":0.00012771,"INCLINATION":53.1574,"RA_OF_ASC_NODE":166.5766,"ARG_OF_PERICENTER":54.8306,"MEAN_ANOMALY":305.2814,"EPHEMERIS_TYPE":0,"CLASSIFICATION_TYPE":"U","NORAD_CAT_ID":65920,"ELEMENT_SET_NO":999,"REV_AT_EPOCH":2438,"BSTAR":0.00060458211,"MEAN_MOTION_DOT":0.00017575,"MEAN_MOTION_DDOT":0}]
